[{"OBJECT_NAME":"STARLINK-4766","OBJECT_ID":"2022-114Y","EPOCH":"2026-03-09T18:35:59.324352","MEAN_MOTION":15.08839965,"ECCENTRICITY":0.00014428,"INCLINATION":53.2167,"RA_OF_ASC_NODE":293.7971,"ARG_OF_PERICENTER":103.3549,"MEAN_ANOMALY":256.7604,"EPHEMERIS_TYPE":0,"CLASSIFICATION_TYPE":"U","NORAD_CAT_ID":53840,"ELEMENT_SET_NO":999,"REV_AT_EPOCH":19298,"BSTAR":-4.2169176e-5,"MEAN_MOTION_DOT":-9.59e-6,"MEAN_MOTION_DDOT":0},{"OBJECT_NAME":"CZ-6A DEB","OBJECT_ID":"2024-140RN","EPOCH":"2026-03-09T09:36:23.350464","MEAN_MOTION":14.99974811,"ECCENTRICITY":0.0047719,"INCLINATION":88.1445,"RA_OF_ASC_NODE":217.6461,"ARG_OF_PERICENTER":172.1525,"MEAN_ANOMALY":188.0467,"EPHEMERIS_TYPE":0,"CLASSIFICATION_TYPE":"U","NORAD_CAT_ID":61168,"ELEMENT_SET_NO":999,"REV_AT_EPOCH":8322,"BSTAR":0.0063622011,"MEAN_MOTION_DOT":0.00081758,"MEAN_MOTION_DDOT":0}]
